UNKNOWN                 
1 87239U          26056.88523810  .00008458  00000+0  20115-2 0  9998
2 87239  82.8760  18.9583 0018858 150.7155 209.5106 14.53662801638781
UNKNOWN                 
1 87245U          26057.41676718  .00004380  00000+0  91669-3 0  9994
2 87245  65.6410 205.2954 0425593  83.2232 313.6254 14.16626821624929
UNKNOWN                 
1 87271U          26055.95615364  .00010411  00000+0  18699-2 0  9993
2 87271  65.7558  36.6498 0420380  34.2206 328.5218 14.22667072622920
UNKNOWN                 
1 87280U          26057.38817755  .00000336  00000+0  63917-3 0  9999
2 87280  64.6140  48.2592 0128939 246.3908 112.3548 13.48635224544052
UNKNOWN                 
1 87293U          26057.09856391  .00005297  00000+0  10140-2 0  9990
2 87293  65.8977 304.7458 0427548 319.0289  37.9383 14.19525532624682
UNKNOWN                 
1 87300U          26057.42621699  .00001570  00000+0  11040-2 0  9997
2 87300 100.0990  52.5396 0026833  90.3387 270.0848 13.99756894623709
UNKNOWN                 
1 87304U          26055.06946452  .00002205  00000+0  32596-3 0  9992
2 87304  74.0188 177.3609 0016746 130.9964 229.2662 14.75775931657298
UNKNOWN                 
1 87320U          26057.57226968  .00001221  00000+0  78158-3 0  9992
2 87320  66.5910 263.3413 0420694   6.1470 354.4530 13.70437159604132
UNKNOWN                 
1 87334U          26057.08481264  .00014918  00000+0  82681-2 0  9997
2 87334  90.0077 271.6959 0067822   0.0760   0.0423 14.09978940397253
UNKNOWN                 
1 87335U          26054.03084315  .00019471  00000+0  10633-1 0  9992
2 87335  89.9958 267.8912 0086539 350.0810   9.8663 14.10028091397152
UNKNOWN                 
1 87405U          26057.58735186  .00002512  00000+0  17727-2 0  9992
2 87405  82.7528   0.2630 0059504 109.6795 251.0807 13.96729477621747
UNKNOWN                 
1 87426U          26055.63928710  .00004468  00000+0  16996-2 0  9995
2 87426  65.7821 134.0508 0070183 260.5614 249.1285 14.30520390633158
