CCSDS_OMM_VERS = 2.0
CREATION_DATE  = 
ORIGINATOR     = 

OBJECT_NAME    = UNKNOWN
OBJECT_ID      = 
CENTER_NAME    = EARTH
REF_FRAME      = TEME
TIME_SYSTEM    = UTC
MEAN_ELEMENT_THEORY = SGP/SGP4

EPOCH          = 2026-02-25T21:14:44.571840
MEAN_MOTION    = 14.53662801
ECCENTRICITY   = .0018858
INCLINATION    = 82.8760
RA_OF_ASC_NODE = 18.9583
ARG_OF_PERICENTER = 150.7155
MEAN_ANOMALY   = 209.5106

EPHEMERIS_TYPE = 0
CLASSIFICATION_TYPE = U
NORAD_CAT_ID   = 87239
ELEMENT_SET_NO = 999
REV_AT_EPOCH   = 63878
BSTAR          = .20115E-2
MEAN_MOTION_DOT = .8458E-4
MEAN_MOTION_DDOT = 0

CCSDS_OMM_VERS = 2.0
CREATION_DATE  = 
ORIGINATOR     = 

OBJECT_NAME    = UNKNOWN
OBJECT_ID      = 
CENTER_NAME    = EARTH
REF_FRAME      = TEME
TIME_SYSTEM    = UTC
MEAN_ELEMENT_THEORY = SGP/SGP4

EPOCH          = 2026-02-26T10:00:08.684352
MEAN_MOTION    = 14.16626821
ECCENTRICITY   = .0425593
INCLINATION    = 65.6410
RA_OF_ASC_NODE = 205.2954
ARG_OF_PERICENTER = 83.2232
MEAN_ANOMALY   = 313.6254

EPHEMERIS_TYPE = 0
CLASSIFICATION_TYPE = U
NORAD_CAT_ID   = 87245
ELEMENT_SET_NO = 999
REV_AT_EPOCH   = 62492
BSTAR          = .91669E-3
MEAN_MOTION_DOT = .438E-4
MEAN_MOTION_DDOT = 0

CCSDS_OMM_VERS = 2.0
CREATION_DATE  = 
ORIGINATOR     = 

OBJECT_NAME    = UNKNOWN
OBJECT_ID      = 
CENTER_NAME    = EARTH
REF_FRAME      = TEME
TIME_SYSTEM    = UTC
MEAN_ELEMENT_THEORY = SGP/SGP4

EPOCH          = 2026-02-24T22:56:51.674496
MEAN_MOTION    = 14.22667072
ECCENTRICITY   = .042038
INCLINATION    = 65.7558
RA_OF_ASC_NODE = 36.6498
ARG_OF_PERICENTER = 34.2206
MEAN_ANOMALY   = 328.5218

EPHEMERIS_TYPE = 0
CLASSIFICATION_TYPE = U
NORAD_CAT_ID   = 87271
ELEMENT_SET_NO = 999
REV_AT_EPOCH   = 62292
BSTAR          = .18699E-2
MEAN_MOTION_DOT = .10411E-3
MEAN_MOTION_DDOT = 0

CCSDS_OMM_VERS = 2.0
CREATION_DATE  = 
ORIGINATOR     = 

OBJECT_NAME    = UNKNOWN
OBJECT_ID      = 
CENTER_NAME    = EARTH
REF_FRAME      = TEME
TIME_SYSTEM    = UTC
MEAN_ELEMENT_THEORY = SGP/SGP4

EPOCH          = 2026-02-26T09:18:58.540320
MEAN_MOTION    = 13.48635224
ECCENTRICITY   = .0128939
INCLINATION    = 64.6140
RA_OF_ASC_NODE = 48.2592
ARG_OF_PERICENTER = 246.3908
MEAN_ANOMALY   = 112.3548

EPHEMERIS_TYPE = 0
CLASSIFICATION_TYPE = U
NORAD_CAT_ID   = 87280
ELEMENT_SET_NO = 999
REV_AT_EPOCH   = 54405
BSTAR          = .63917E-3
MEAN_MOTION_DOT = .336E-5
MEAN_MOTION_DDOT = 0

CCSDS_OMM_VERS = 2.0
CREATION_DATE  = 
ORIGINATOR     = 

OBJECT_NAME    = UNKNOWN
OBJECT_ID      = 
CENTER_NAME    = EARTH
REF_FRAME      = TEME
TIME_SYSTEM    = UTC
MEAN_ELEMENT_THEORY = SGP/SGP4

EPOCH          = 2026-02-26T02:21:55.921824
MEAN_MOTION    = 14.19525532
ECCENTRICITY   = .0427548
INCLINATION    = 65.8977
RA_OF_ASC_NODE = 304.7458
ARG_OF_PERICENTER = 319.0289
MEAN_ANOMALY   = 37.9383

EPHEMERIS_TYPE = 0
CLASSIFICATION_TYPE = U
NORAD_CAT_ID   = 87293
ELEMENT_SET_NO = 999
REV_AT_EPOCH   = 62468
BSTAR          = .1014E-2
MEAN_MOTION_DOT = .5297E-4
MEAN_MOTION_DDOT = 0

CCSDS_OMM_VERS = 2.0
CREATION_DATE  = 
ORIGINATOR     = 

OBJECT_NAME    = UNKNOWN
OBJECT_ID      = 
CENTER_NAME    = EARTH
REF_FRAME      = TEME
TIME_SYSTEM    = UTC
MEAN_ELEMENT_THEORY = SGP/SGP4

EPOCH          = 2026-02-26T10:13:45.147936
MEAN_MOTION    = 13.99756894
ECCENTRICITY   = .0026833
INCLINATION    = 100.0990
RA_OF_ASC_NODE = 52.5396
ARG_OF_PERICENTER = 90.3387
MEAN_ANOMALY   = 270.0848

EPHEMERIS_TYPE = 0
CLASSIFICATION_TYPE = U
NORAD_CAT_ID   = 87300
ELEMENT_SET_NO = 999
REV_AT_EPOCH   = 62370
BSTAR          = .1104E-2
MEAN_MOTION_DOT = .157E-4
MEAN_MOTION_DDOT = 0

CCSDS_OMM_VERS = 2.0
CREATION_DATE  = 
ORIGINATOR     = 

OBJECT_NAME    = UNKNOWN
OBJECT_ID      = 
CENTER_NAME    = EARTH
REF_FRAME      = TEME
TIME_SYSTEM    = UTC
MEAN_ELEMENT_THEORY = SGP/SGP4

EPOCH          = 2026-02-24T01:40:01.734528
MEAN_MOTION    = 14.75775931
ECCENTRICITY   = .0016746
INCLINATION    = 74.0188
RA_OF_ASC_NODE = 177.3609
ARG_OF_PERICENTER = 130.9964
MEAN_ANOMALY   = 229.2662

EPHEMERIS_TYPE = 0
CLASSIFICATION_TYPE = U
NORAD_CAT_ID   = 87304
ELEMENT_SET_NO = 999
REV_AT_EPOCH   = 65729
BSTAR          = .32596E-3
MEAN_MOTION_DOT = .2205E-4
MEAN_MOTION_DDOT = 0

CCSDS_OMM_VERS = 2.0
CREATION_DATE  = 
ORIGINATOR     = 

OBJECT_NAME    = UNKNOWN
OBJECT_ID      = 
CENTER_NAME    = EARTH
REF_FRAME      = TEME
TIME_SYSTEM    = UTC
MEAN_ELEMENT_THEORY = SGP/SGP4

EPOCH          = 2026-02-26T13:44:04.100352
MEAN_MOTION    = 13.70437159
ECCENTRICITY   = .0420694
INCLINATION    = 66.5910
RA_OF_ASC_NODE = 263.3413
ARG_OF_PERICENTER = 6.1470
MEAN_ANOMALY   = 354.4530

EPHEMERIS_TYPE = 0
CLASSIFICATION_TYPE = U
NORAD_CAT_ID   = 87320
ELEMENT_SET_NO = 999
REV_AT_EPOCH   = 60413
BSTAR          = .78158E-3
MEAN_MOTION_DOT = .1221E-4
MEAN_MOTION_DDOT = 0

CCSDS_OMM_VERS = 2.0
CREATION_DATE  = 
ORIGINATOR     = 

OBJECT_NAME    = UNKNOWN
OBJECT_ID      = 
CENTER_NAME    = EARTH
REF_FRAME      = TEME
TIME_SYSTEM    = UTC
MEAN_ELEMENT_THEORY = SGP/SGP4

EPOCH          = 2026-02-26T02:02:07.812096
MEAN_MOTION    = 14.09978940
ECCENTRICITY   = .0067822
INCLINATION    = 90.0077
RA_OF_ASC_NODE = 271.6959
ARG_OF_PERICENTER = 0.0760
MEAN_ANOMALY   = 0.0423

EPHEMERIS_TYPE = 0
CLASSIFICATION_TYPE = U
NORAD_CAT_ID   = 87334
ELEMENT_SET_NO = 999
REV_AT_EPOCH   = 39725
BSTAR          = .82681E-2
MEAN_MOTION_DOT = .14918E-3
MEAN_MOTION_DDOT = 0

CCSDS_OMM_VERS = 2.0
CREATION_DATE  = 
ORIGINATOR     = 

OBJECT_NAME    = UNKNOWN
OBJECT_ID      = 
CENTER_NAME    = EARTH
REF_FRAME      = TEME
TIME_SYSTEM    = UTC
MEAN_ELEMENT_THEORY = SGP/SGP4

EPOCH          = 2026-02-23T00:44:24.848160
MEAN_MOTION    = 14.10028091
ECCENTRICITY   = .0086539
INCLINATION    = 89.9958
RA_OF_ASC_NODE = 267.8912
ARG_OF_PERICENTER = 350.0810
MEAN_ANOMALY   = 9.8663

EPHEMERIS_TYPE = 0
CLASSIFICATION_TYPE = U
NORAD_CAT_ID   = 87335
ELEMENT_SET_NO = 999
REV_AT_EPOCH   = 39715
BSTAR          = .10633E-1
MEAN_MOTION_DOT = .19471E-3
MEAN_MOTION_DDOT = 0

CCSDS_OMM_VERS = 2.0
CREATION_DATE  = 
ORIGINATOR     = 

OBJECT_NAME    = UNKNOWN
OBJECT_ID      = 
CENTER_NAME    = EARTH
REF_FRAME      = TEME
TIME_SYSTEM    = UTC
MEAN_ELEMENT_THEORY = SGP/SGP4

EPOCH          = 2026-02-26T14:05:47.200704
MEAN_MOTION    = 13.96729477
ECCENTRICITY   = .0059504
INCLINATION    = 82.7528
RA_OF_ASC_NODE = 0.2630
ARG_OF_PERICENTER = 109.6795
MEAN_ANOMALY   = 251.0807

EPHEMERIS_TYPE = 0
CLASSIFICATION_TYPE = U
NORAD_CAT_ID   = 87405
ELEMENT_SET_NO = 999
REV_AT_EPOCH   = 62174
BSTAR          = .17727E-2
MEAN_MOTION_DOT = .2512E-4
MEAN_MOTION_DDOT = 0

CCSDS_OMM_VERS = 2.0
CREATION_DATE  = 
ORIGINATOR     = 

OBJECT_NAME    = UNKNOWN
OBJECT_ID      = 
CENTER_NAME    = EARTH
REF_FRAME      = TEME
TIME_SYSTEM    = UTC
MEAN_ELEMENT_THEORY = SGP/SGP4

EPOCH          = 2026-02-24T15:20:34.405440
MEAN_MOTION    = 14.30520390
ECCENTRICITY   = .0070183
INCLINATION    = 65.7821
RA_OF_ASC_NODE = 134.0508
ARG_OF_PERICENTER = 260.5614
MEAN_ANOMALY   = 249.1285

EPHEMERIS_TYPE = 0
CLASSIFICATION_TYPE = U
NORAD_CAT_ID   = 87426
ELEMENT_SET_NO = 999
REV_AT_EPOCH   = 63315
BSTAR          = .16996E-2
MEAN_MOTION_DOT = .4468E-4
MEAN_MOTION_DDOT = 0

